NORAD_CAT_ID,OBJECT_NAME,OBJECT_TYPE,EPOCH,MEAN_MOTION,ECCENTRICITY,INCLINATION,RA_OF_ASC_NODE,ARG_OF_PERICENTER,MEAN_ANOMALY,BSTAR,MEAN_MOTION_DOT,MEAN_MOTION_DDOT,TLE_LINE0,TLE_LINE1,TLE_LINE2,SEMIMAJOR_AXIS,PERIOD,APOGEE,PERIGEE,DECAYED
50167.0,STARLINK-3271,PAYLOAD,2023-12-02 08:27:14,15.08879456,0.0001811,53.2186,17.683,109.752,250.3667,0.00066666,0.00010349,0.0,0 STARLINK-3271,1 50167U 21125M   23336.35224886  .00010349  00000-0  66666-3 0  9995,2 50167  53.2186  17.6830 0001811 109.7520 250.3667 15.08879456110921,6917.76,95.435,540.878,538.372,0.0
50167.0,STARLINK-3271,PAYLOAD,2023-12-03 03:31:53,15.08833475,0.0001761,53.2186,14.114,98.0815,262.0377,-0.00021353,-3.684e-05,0.0,0 STARLINK-3271,1 50167U 21125M   23337.14714514 -.00003684  00000-0 -21353-3 0  9995,2 50167  53.2186  14.1140 0001761  98.0815 262.0377 15.08833475111041,6917.9,95.438,540.984,538.547,0.0
50167.0,STARLINK-3271,PAYLOAD,2023-12-03 11:28:49,15.08813724,9.81e-05,53.2189,12.6281,102.8613,257.2489,-0.00049811,-8.201e-05,0.0,0 STARLINK-3271,1 50167U 21125M   23337.47835350 -.00008201  00000-0 -49811-3 0  9992,2 50167  53.2189  12.6281 0000981 102.8613 257.2489 15.08813724111096,6917.961,95.439,540.504,539.147,0.0
50167.0,STARLINK-3271,PAYLOAD,2023-12-03 13:04:13,15.0880468,0.0001579,53.2188,12.3301,78.734,281.3829,-0.00064178,-0.00010477,0.0,0 STARLINK-3271,1 50167U 21125M   23337.54459870 -.00010477  00000-0 -64178-3 0  9990,2 50167  53.2188  12.3301 0001579  78.7340 281.3829 15.08804680111588,6917.988,95.44,540.946,538.761,0.0
50167.0,STARLINK-3271,PAYLOAD,2023-12-04 11:19:38,15.08823745,0.0001625,53.2191,8.1665,74.4065,285.7107,0.00075841,0.00011797,0.0,0 STARLINK-3271,1 50167U 21125M   23338.47197533  .00011797  00000-0  75841-3 0  9991,2 50167  53.2191   8.1665 0001625  74.4065 285.7107 15.08823745111240,6917.93,95.439,540.919,538.671,0.0
50167.0,STARLINK-3271,PAYLOAD,2023-12-05 01:38:06,15.08861311,0.0001764,53.2174,5.4917,76.0671,284.0518,0.0013515,0.00021299,0.0,0 STARLINK-3271,1 50167U 21125M   23339.06813155  .00021299  00000-0  13515-2 0  9999,2 50167  53.2174   5.4917 0001764  76.0671 284.0518 15.08861311111335,6917.815,95.436,540.901,538.46,0.0
50167.0,STARLINK-3271,PAYLOAD,2023-12-05 07:59:38,15.08874454,0.000182,53.2173,4.3026,75.8281,284.2913,0.0014821,0.00023401,0.0,0 STARLINK-3271,1 50167U 21125M   23339.33308636  .00023401  00000-0  14821-2 0  9990,2 50167  53.2173   4.3026 0001820  75.8281 284.2913 15.08874454111850,6917.775,95.435,540.899,538.381,0.0
50167.0,STARLINK-3271,PAYLOAD,2023-12-06 01:28:52,15.08868225,0.000259,53.2174,1.0371,67.1429,292.9837,0.00085534,0.00013362,0.0,0 STARLINK-3271,1 50167U 21125M   23340.06172039  .00013362  00000-0  85534-3 0  9993,2 50167  53.2174   1.0371 0002590  67.1429 292.9837 15.08868225111480,6917.794,95.436,541.451,537.867,0.0
50167.0,STARLINK-3271,PAYLOAD,2023-12-06 07:50:24,15.08857001,0.0002035,53.2177,359.8417,86.267,273.8555,6.0056e-05,6.68e-06,0.0,0 STARLINK-3271,1 50167U 21125M   23340.32667627  .00000668  00000-0  60056-4 0  9992,2 50167  53.2177 359.8417 0002035  86.2670 273.8555 15.08857001111522,6917.828,95.436,541.101,538.286,0.0
50167.0,STARLINK-3271,PAYLOAD,2023-12-07 04:30:25,15.08843435,0.000205,53.2179,355.9767,97.6725,262.45,-0.00011349,-2.094e-05,0.0,0 STARLINK-3271,1 50167U 21125M   23341.18779612 -.00002094  00000-0 -11349-3 0  9992,2 50167  53.2179 355.9767 0002050  97.6725 262.4500 15.08843435111657,6917.87,95.437,541.153,538.317,0.0
50167.0,STARLINK-3271,PAYLOAD,2023-12-07 10:51:58,15.0884853,0.0001686,53.2178,354.7863,93.7404,266.3781,-7.2699e-05,-1.445e-05,0.0,0 STARLINK-3271,1 50167U 21125M   23341.45275775 -.00001445  00000-0 -72699-4 0  9998,2 50167  53.2178 354.7863 0001686  93.7404 266.3781 15.08848530112178,6917.854,95.437,540.886,538.553,0.0
50167.0,STARLINK-3271,PAYLOAD,2023-12-08 10:42:44,15.08846603,0.0001784,53.2187,350.324,99.3406,260.7788,-1.8434e-05,-5.82e-06,0.0,0 STARLINK-3271,1 50167U 21125M   23342.44635414 -.00000582  00000-0 -18434-4 0  9996,2 50167  53.2187 350.3240 0001784  99.3406 260.7788 15.08846603111849,6917.86,95.437,540.959,538.491,0.0
50167.0,STARLINK-3271,PAYLOAD,2023-12-09 07:22:45,15.08839474,0.0001699,53.219,346.4581,90.1647,269.954,9.9239e-05,1.292e-05,0.0,0 STARLINK-3271,1 50167U 21125M   23343.30747659  .00001292  00000-0  99239-4 0  9996,2 50167  53.2190 346.4581 0001699  90.1647 269.9540 15.08839474111977,6917.882,95.438,540.922,538.572,0.0
50167.0,STARLINK-3271,PAYLOAD,2023-12-10 00:52:01,15.08835137,0.0001795,53.2195,343.1873,90.0741,270.0457,1.3729e-05,-7e-07,0.0,0 STARLINK-3271,1 50167U 21125M   23344.03612302 -.00000070  00000-0  13729-4 0  9997,2 50167  53.2195 343.1873 0001795  90.0741 270.0457 15.08835137112086,6917.895,95.438,541.002,538.518,0.0
50167.0,STARLINK-3271,PAYLOAD,2023-12-11 03:53:34,15.08839522,0.0001863,53.2199,338.1409,101.7965,258.3237,4.4004e-05,4.12e-06,0.0,0 STARLINK-3271,1 50167U 21125M   23345.16220131  .00000412  00000-0  44004-4 0  9996,2 50167  53.2199 338.1409 0001863 101.7965 258.3237 15.08839522112259,6917.882,95.438,541.036,538.458,0.0
50167.0,STARLINK-3271,PAYLOAD,2023-12-11 07:04:20,15.08838785,0.0001756,53.219,337.5429,92.5501,267.5692,2.8618e-05,1.67e-06,0.0,0 STARLINK-3271,1 50167U 21125M   23345.29468265  .00000167  00000-0  28618-4 0  9992,2 50167  53.2190 337.5429 0001756  92.5501 267.5692 15.08838785112751,6917.884,95.438,540.964,538.534,0.0
50167.0,STARLINK-3271,PAYLOAD,2023-12-12 06:55:07,15.08841804,0.0002001,53.2189,333.0771,78.8512,281.2705,7.7641e-05,9.48e-06,0.0,0 STARLINK-3271,1 50167U 21125M   23346.28828208  .00000948  00000-0  77641-4 0  9996,2 50167  53.2189 333.0771 0002001  78.8512 281.2705 15.08841804112421,6917.875,95.437,541.124,538.356,0.0
50167.0,STARLINK-3271,PAYLOAD,2023-12-13 06:45:54,15.08847525,0.0002117,53.2193,328.6162,76.3584,283.7644,0.00014129,1.962e-05,0.0,0 STARLINK-3271,1 50167U 21125M   23347.28187537  .00001962  00000-0  14129-3 0  9998,2 50167  53.2193 328.6162 0002117  76.3584 283.7644 15.08847525113055,6917.857,95.437,541.187,538.258,0.0
50167.0,STARLINK-3271,PAYLOAD,2023-12-14 05:01:19,15.08838107,0.0002078,53.2192,324.4605,82.1371,277.9857,-8.6808e-06,-4.26e-06,0.0,0 STARLINK-3271,1 50167U 21125M   23348.20924770 -.00000426  00000-0 -86808-5 0  9990,2 50167  53.2192 324.4605 0002078  82.1371 277.9857 15.08838107112714,6917.886,95.438,541.189,538.314,0.0
50167.0,STARLINK-3271,PAYLOAD,2023-12-15 04:52:04,15.0885498,0.0002085,53.2197,319.9959,79.9133,280.2095,5.0076e-05,5.09e-06,0.0,0 STARLINK-3271,1 50167U 21125M   23349.20283396  .00000509  00000-0  50076-4 0  9990,2 50167  53.2197 319.9959 0002085  79.9133 280.2095 15.08854980112862,6917.835,95.437,541.142,538.257,0.0
50167.0,STARLINK-3271,PAYLOAD,2023-12-16 03:07:29,15.08836828,0.0001871,53.2192,315.8352,84.6148,275.5058,4.643e-05,4.51e-06,0.0,0 STARLINK-3271,1 50167U 21125M   23350.13020812  .00000451  00000-0  46430-4 0  9991,2 50167  53.2192 315.8352 0001871  84.6148 275.5058 15.08836828113004,6917.89,95.438,541.049,538.461,0.0
50167.0,STARLINK-3271,PAYLOAD,2023-12-17 02:58:16,15.08845056,0.0002139,53.2195,311.375,112.1365,247.9854,-1.7247e-05,-5.63e-06,0.0,0 STARLINK-3271,1 50167U 21125M   23351.12380232 -.00000563  00000-0 -17247-4 0  9996,2 50167  53.2195 311.3750 0002139 112.1365 247.9854 15.08845056113152,6917.865,95.437,541.21,538.25,0.0
50167.0,STARLINK-3271,PAYLOAD,2023-12-17 04:33:39,15.08847879,0.0002012,53.2187,311.0725,107.3626,252.7586,4.8398e-05,4.82e-06,0.0,0 STARLINK-3271,1 50167U 21125M   23351.19004085  .00000482  00000-0  48398-4 0  9991,2 50167  53.2187 311.0725 0002012 107.3626 252.7586 15.08847879113643,6917.856,95.437,541.113,538.329,0.0
50167.0,STARLINK-3271,PAYLOAD,2023-12-18 02:49:03,15.08847528,0.0001911,53.2178,306.9124,101.98,258.1406,0.00015724,2.216e-05,0.0,0 STARLINK-3271,1 50167U 21125M   23352.11740117  .00002216  00000-0  15724-3 0  9990,2 50167  53.2178 306.9124 0001911 101.9800 258.1406 15.08847528113787,6917.857,95.437,541.044,538.4,0.0
50167.0,STARLINK-3271,PAYLOAD,2023-12-19 04:15:14,15.08827305,0.0001563,53.2172,302.1534,92.3894,267.7277,-0.00012125,-2.216e-05,0.0,0 STARLINK-3271,1 50167U 21125M   23353.17725671 -.00002216  00000-0 -12125-3 0  9999,2 50167  53.2172 302.1534 0001563  92.3894 267.7277 15.08827305113461,6917.919,95.438,540.865,538.703,0.0
50167.0,STARLINK-3271,PAYLOAD,2023-12-20 04:06:01,15.08849246,0.0001459,53.2165,297.6944,94.7905,265.3254,0.00019332,2.791e-05,0.0,0 STARLINK-3271,1 50167U 21125M   23354.17085108  .00002791  00000-0  19332-3 0  9997,2 50167  53.2165 297.6944 0001459  94.7905 265.3254 15.08849246113613,6917.852,95.437,540.726,538.708,0.0
50167.0,STARLINK-3271,PAYLOAD,2023-12-21 02:21:26,15.08843795,0.0001733,53.218,293.5224,72.5946,287.5236,0.00028928,4.319e-05,0.0,0 STARLINK-3271,1 50167U 21125M   23355.09821944  .00004319  00000-0  28928-3 0  9994,2 50167  53.2180 293.5224 0001733  72.5946 287.5236 15.08843795113754,6917.869,95.437,540.933,538.535,0.0
50167.0,STARLINK-3271,PAYLOAD,2023-12-22 02:12:12,15.08848076,0.0001613,53.2168,289.0694,80.8343,279.2832,0.00011827,1.595e-05,0.0,0 STARLINK-3271,1 50167U 21125M   23356.09181526  .00001595  00000-0  11827-3 0  9993,2 50167  53.2168 289.0694 0001613  80.8343 279.2832 15.08848076114388,6917.856,95.437,540.837,538.605,0.0
50167.0,STARLINK-3271,PAYLOAD,2023-12-23 02:03:00,15.08840321,0.0001545,53.2166,284.6132,97.5881,262.5287,0.00019862,2.874e-05,0.0,0 STARLINK-3271,1 50167U 21125M   23357.08541729  .00002874  00000-0  19862-3 0  9996,2 50167  53.2166 284.6132 0001545  97.5881 262.5287 15.08840321114058,6917.879,95.438,540.813,538.676,0.0
50167.0,STARLINK-3271,PAYLOAD,2023-12-23 05:13:45,15.08848222,0.0001539,53.2174,284.0098,88.5809,271.536,9.4174e-05,1.211e-05,0.0,0 STARLINK-3271,1 50167U 21125M   23357.21789212  .00001211  00000-0  94174-4 0  9996,2 50167  53.2174 284.0098 0001539  88.5809 271.5360 15.08848222114550,6917.855,95.437,540.785,538.656,0.0
